{
  "type": "FeatureCollection",
  "features": [
    {
      "type": "Feature",
      "properties": {
        "norad_id": 42988,
        "name": "SKYSAT-C10",
        "group": "resource",
        "lat": 17.020155329822597,
        "lon": 111.36618198914502,
        "alt_km": 471.12864145349795,
        "timestamp": "2025-12-08T19:31:48.485385+00:00",
        "meta_object_name": "SKYSAT-C10",
        "meta_object_id": "2017-068B",
        "meta_epoch": "2025-12-08T06:54:50.547456",
        "meta_mean_motion": 15.31917321,
        "meta_eccentricity": 0.0005308,
        "meta_inclination": 97.4263,
        "meta_ra_of_asc_node": 113.1276,
        "meta_arg_of_pericenter": 116.1008,
        "meta_mean_anomaly": 244.0781,
        "meta_ephemeris_type": 0,
        "meta_classification_type": "U",
        "meta_norad_cat_id": 42988,
        "meta_element_set_no": 999,
        "meta_rev_at_epoch": 45311,
        "meta_bstar": 0.00045358189,
        "meta_mean_motion_dot": 0.00013915,
        "meta_mean_motion_ddot": 0,
        "tle_line1": "1 42988U 17068B   25342.28808504  .00013915  00000+0  45358-3 0  9990",
        "tle_line2": "2 42988  97.4263 113.1276 0005308 116.1008 244.0781 15.31917321453111"
      },
      "geometry": {
        "type": "Point",
        "coordinates": [
          111.36618198914502,
          17.020155329822597
        ]
      }
    },
    {
      "type": "Feature",
      "properties": {
        "norad_id": 42989,
        "name": "SKYSAT-C9",
        "group": "resource",
        "lat": 10.881337549921462,
        "lon": -65.52727777433513,
        "alt_km": 457.1856042880163,
        "timestamp": "2025-12-08T19:31:48.485395+00:00",
        "meta_object_name": "SKYSAT-C9",
        "meta_object_id": "2017-068C",
        "meta_epoch": "2025-12-08T07:51:09.642816",
        "meta_mean_motion": 15.35879402,
        "meta_eccentricity": 0.0010689,
        "meta_inclination": 97.4193,
        "meta_ra_of_asc_node": 112.5471,
        "meta_arg_of_pericenter": 101.9087,
        "meta_mean_anomaly": 258.3356,
        "meta_ephemeris_type": 0,
        "meta_classification_type": "U",
        "meta_norad_cat_id": 42989,
        "meta_element_set_no": 999,
        "meta_rev_at_epoch": 45340,
        "meta_bstar": 0.00050697262,
        "meta_mean_motion_dot": 0.00017672,
        "meta_mean_motion_ddot": 0,
        "tle_line1": "1 42989U 17068C   25342.32719494  .00017672  00000+0  50697-3 0  9991",
        "tle_line2": "2 42989  97.4193 112.5471 0010689 101.9087 258.3356 15.35879402453400"
      },
      "geometry": {
        "type": "Point",
        "coordinates": [
          -65.52727777433513,
          10.881337549921462
        ]
      }
    },
    {
      "type": "Feature",
      "properties": {
        "norad_id": 42990,
        "name": "SKYSAT-C8",
        "group": "resource",
        "lat": -3.7332924243792243,
        "lon": -67.69038661753551,
        "alt_km": 472.38739953515415,
        "timestamp": "2025-12-08T19:31:48.485404+00:00",
        "meta_object_name": "SKYSAT-C8",
        "meta_object_id": "2017-068D",
        "meta_epoch": "2025-12-08T07:45:49.936896",
        "meta_mean_motion": 15.32770778,
        "meta_eccentricity": 0.00018969,
        "meta_inclination": 97.4284,
        "meta_ra_of_asc_node": 112.3052,
        "meta_arg_of_pericenter": 5.8812,
        "meta_mean_anomaly": 354.2452,
        "meta_ephemeris_type": 0,
        "meta_classification_type": "U",
        "meta_norad_cat_id": 42990,
        "meta_element_set_no": 999,
        "meta_rev_at_epoch": 45303,
        "meta_bstar": 0.00046704151,
        "meta_mean_motion_dot": 0.00014715,
        "meta_mean_motion_ddot": 0,
        "tle_line1": "1 42990U 17068D   25342.32349464  .00014715  00000+0  46704-3 0  9998",
        "tle_line2": "2 42990  97.4284 112.3052 0001896   5.8812 354.2452 15.32770778453039"
      },
      "geometry": {
        "type": "Point",
        "coordinates": [
          -67.69038661753551,
          -3.7332924243792243
        ]
      }
    },
    {
      "type": "Feature",
      "properties": {
        "norad_id": 42991,
        "name": "SKYSAT-C7",
        "group": "resource",
        "lat": 46.8158841841375,
        "lon": 105.85016512457096,
        "alt_km": 460.23125143016205,
        "timestamp": "2025-12-08T19:31:48.485413+00:00",
        "meta_object_name": "SKYSAT-C7",
        "meta_object_id": "2017-068E",
        "meta_epoch": "2025-12-08T06:47:06.898272",
        "meta_mean_motion": 15.32177473,
        "meta_eccentricity": 0.00078384,
        "meta_inclination": 97.4292,
        "meta_ra_of_asc_node": 113.3093,
        "meta_arg_of_pericenter": 71.0846,
        "meta_mean_anomaly": 289.1245,
        "meta_ephemeris_type": 0,
        "meta_classification_type": "U",
        "meta_norad_cat_id": 42991,
        "meta_element_set_no": 999,
        "meta_rev_at_epoch": 45309,
        "meta_bstar": 0.00044850631,
        "meta_mean_motion_dot": 0.00013878,
        "meta_mean_motion_ddot": 0,
        "tle_line1": "1 42991U 17068E   25342.28271873  .00013878  00000+0  44851-3 0  9992",
        "tle_line2": "2 42991  97.4292 113.3093 0007838  71.0846 289.1245 15.32177473453094"
      },
      "geometry": {
        "type": "Point",
        "coordinates": [
          105.85016512457096,
          46.8158841841375
        ]
      }
    },
    {
      "type": "Feature",
      "properties": {
        "norad_id": 42992,
        "name": "SKYSAT-C6",
        "group": "resource",
        "lat": 3.6505571192525545,
        "lon": -65.23919184561738,
        "alt_km": 473.9981123456337,
        "timestamp": "2025-12-08T19:31:48.485422+00:00",
        "meta_object_name": "SKYSAT-C6",
        "meta_object_id": "2017-068F",
        "meta_epoch": "2025-12-08T07:47:09.204576",
        "meta_mean_motion": 15.31348502,
        "meta_eccentricity": 0.00052118,
        "meta_inclination": 97.4325,
        "meta_ra_of_asc_node": 113.7931,
        "meta_arg_of_pericenter": 93.7557,
        "meta_mean_anomaly": 266.428,
        "meta_ephemeris_type": 0,
        "meta_classification_type": "U",
        "meta_norad_cat_id": 42992,
        "meta_element_set_no": 999,
        "meta_rev_at_epoch": 45308,
        "meta_bstar": 0.00046859043,
        "meta_mean_motion_dot": 0.00014126,
        "meta_mean_motion_ddot": 0,
        "tle_line1": "1 42992U 17068F   25342.32441209  .00014126  00000+0  46859-3 0  9997",
        "tle_line2": "2 42992  97.4325 113.7931 0005211  93.7557 266.4280 15.31348502453088"
      },
      "geometry": {
        "type": "Point",
        "coordinates": [
          -65.23919184561738,
          3.6505571192525545
        ]
      }
    },
    {
      "type": "Feature",
      "properties": {
        "norad_id": 43111,
        "name": "CARTOSAT-2F",
        "group": "resource",
        "lat": 81.34250966401248,
        "lon": -80.4719568071174,
        "alt_km": 500.45801382911577,
        "timestamp": "2025-12-08T19:31:48.485431+00:00",
        "meta_object_name": "CARTOSAT-2F",
        "meta_object_id": "2018-004A",
        "meta_epoch": "2025-12-08T06:28:11.191872",
        "meta_mean_motion": 15.19205555,
        "meta_eccentricity": 6.955e-05,
        "meta_inclination": 97.4318,
        "meta_ra_of_asc_node": 39.9792,
        "meta_arg_of_pericenter": 142.5406,
        "meta_mean_anomaly": 217.5877,
        "meta_ephemeris_type": 0,
        "meta_classification_type": "U",
        "meta_norad_cat_id": 43111,
        "meta_element_set_no": 999,
        "meta_rev_at_epoch": 43834,
        "meta_bstar": 0.00031457289,
        "meta_mean_motion_dot": 6.555e-05,
        "meta_mean_motion_ddot": 0,
        "tle_line1": "1 43111U 18004A   25342.26957398  .00006555  00000+0  31457-3 0  9991",
        "tle_line2": "2 43111  97.4318  39.9792 0000695 142.5406 217.5877 15.19205555438342"
      },
      "geometry": {
        "type": "Point",
        "coordinates": [
          -80.4719568071174,
          81.34250966401248
        ]
      }
    },
    {
      "type": "Feature",
      "properties": {
        "norad_id": 43259,
        "name": "GAOFEN-1 02",
        "group": "resource",
        "lat": 73.48377402537871,
        "lon": -110.76742598144618,
        "alt_km": 634.0212039391736,
        "timestamp": "2025-12-08T19:31:48.485440+00:00",
        "meta_object_name": "GAOFEN-1 02",
        "meta_object_id": "2018-031A",
        "meta_epoch": "2025-12-08T06:02:48.884352",
        "meta_mean_motion": 14.76466987,
        "meta_eccentricity": 0.00014649,
        "meta_inclination": 98.0813,
        "meta_ra_of_asc_node": 40.0395,
        "meta_arg_of_pericenter": 229.9496,
        "meta_mean_anomaly": 130.1585,
        "meta_ephemeris_type": 0,
        "meta_classification_type": "U",
        "meta_norad_cat_id": 43259,
        "meta_element_set_no": 999,
        "meta_rev_at_epoch": 41452,
        "meta_bstar": 0.00027767766,
        "meta_mean_motion_dot": 1.881e-05,
        "meta_mean_motion_ddot": 0,
        "tle_line1": "1 43259U 18031A   25342.25195468  .00001881  00000+0  27768-3 0  9992",
        "tle_line2": "2 43259  98.0813  40.0395 0001464 229.9496 130.1585 14.76466987414528"
      },
      "geometry": {
        "type": "Point",
        "coordinates": [
          -110.76742598144618,
          73.48377402537871
        ]
      }
    }
  ]
}